[{"OBJECT_NAME":"STARLINK-6320","OBJECT_ID":"2023-099J","EPOCH":"2026-03-09T22:00:01.999584","MEAN_MOTION":15.13515062,"ECCENTRICITY":9.311e-5,"INCLINATION":43.0001,"RA_OF_ASC_NODE":246.9786,"ARG_OF_PERICENTER":284.6081,"MEAN_ANOMALY":285.2525,"EPHEMERIS_TYPE":0,"CLASSIFICATION_TYPE":"U","NORAD_CAT_ID":57336,"ELEMENT_SET_NO":999,"REV_AT_EPOCH":573,"BSTAR":0.0070820048,"MEAN_MOTION_DOT":0.00131271,"MEAN_MOTION_DDOT":0},{"OBJECT_NAME":"YAOGAN-39 02C","OBJECT_ID":"2023-145E","EPOCH":"2026-03-09T14:30:01.798272","MEAN_MOTION":15.16731144,"ECCENTRICITY":0.000723,"INCLINATION":34.9932,"RA_OF_ASC_NODE":125.2072,"ARG_OF_PERICENTER":244.0478,"MEAN_ANOMALY":115.949,"EPHEMERIS_TYPE":0,"CLASSIFICATION_TYPE":"U","NORAD_CAT_ID":57890,"ELEMENT_SET_NO":999,"REV_AT_EPOCH":13772,"BSTAR":0.0004102,"MEAN_MOTION_DOT":8.21e-5,"MEAN_MOTION_DDOT":0}]
